[{"OBJECT_NAME":"MESAT1","OBJECT_ID":"2024-125G","EPOCH":"2026-03-09T13:42:49.415328","MEAN_MOTION":15.53588194,"ECCENTRICITY":0.0011362,"INCLINATION":97.2457,"RA_OF_ASC_NODE":284.4146,"ARG_OF_PERICENTER":222.17,"MEAN_ANOMALY":137.8681,"EPHEMERIS_TYPE":0,"CLASSIFICATION_TYPE":"U","NORAD_CAT_ID":60209,"ELEMENT_SET_NO":999,"REV_AT_EPOCH":9405,"BSTAR":0.00067574,"MEAN_MOTION_DOT":0.00043222,"MEAN_MOTION_DDOT":0},{"OBJECT_NAME":"STARLINK-36548","OBJECT_ID":"2026-020A","EPOCH":"2026-03-09T22:00:01.999584","MEAN_MOTION":15.6537729,"ECCENTRICITY":0.00012178,"INCLINATION":42.9995,"RA_OF_ASC_NODE":141.0362,"ARG_OF_PERICENTER":274.5586,"MEAN_ANOMALY":288.7146,"EPHEMERIS_TYPE":0,"CLASSIFICATION_TYPE":"U","NORAD_CAT_ID":67617,"ELEMENT_SET_NO":999,"REV_AT_EPOCH":604,"BSTAR":-0.021753311,"MEAN_MOTION_DOT":-0.01966984,"MEAN_MOTION_DDOT":0}]
